GOES 16                 
1 41866U 16071A   26198.24720140 -.00000101  00000+0  00000+0 0  9997
2 41866   0.4093  85.4586 0000568  87.3993 106.5031  1.00271190 35406
TIANLIAN 1-04           
1 41869U 16072A   26198.25600362  .00000020  00000+0  00000+0 0  9994
2 41869   0.9433  82.7079 0044180  90.7239  30.5732  1.00271492 35609
WGS F8 (USA 272)        
1 41879U 16075A   26197.79857236 -.00000213  00000+0  00000+0 0  9995
2 41879   0.0189  48.5677 0000142 297.7813  25.5764  1.00269897 35111
FENGYUN 4A              
1 41882U 16077A   26198.29235494 -.00000368  00000+0  00000+0 0  9994
2 41882   2.3972  79.9372 0008460 159.7505 284.3877  1.00267042 35239
ECHOSTAR 19             
1 41893U 16079A   26198.24867473 -.00000148  00000+0  00000+0 0  9997
2 41893   0.0182  54.7166 0001471  71.9942 160.7766  1.00270346 35006
JCSAT-110A (JCSAT-15)   
1 41903U 16082A   26198.28966828 -.00000361  00000+0  00000+0 0  9998
2 41903   0.0189  49.1602 0000509  80.5438  19.7468  1.00270386 35067
STAR ONE D1             
1 41904U 16082B   26198.25118808 -.00000221  00000+0  00000+0 0  9998
2 41904   0.0086 319.6845 0002259 157.2301 184.5909  1.00270682 35074
TJS-2                   
1 41911U 17001A   26198.19419797 -.00000017  00000+0  00000+0 0  9995
2 41911   0.9089  84.9217 0000799 102.9251 243.6065  1.00271125 35014
SBIRS GEO-4 (USA 273)   
1 41937U 17004A   26198.27224819  .00000117  00000+0  00000+0 0  9994
2 41937   2.3004  44.0420 0002666  66.8136 303.9667  1.00281198 34909
HISPASAT 36W-1          
1 41942U 17006A   26197.40537234  .00000000  00000+0  00000+0 0  9995
2 41942   0.0104  68.2055 0001197  46.6774 289.3003  1.00268264 34534
TELKOM 3S               
1 41944U 17007A   26198.21990699  .00000000  00000+0  00000+0 0  9996
2 41944   0.0133  61.2731 0002145  51.8173  19.1161  1.00266338 34441
INTELSAT 32E (IS-32E)   
1 41945U 17007B   26198.25933479  .00000000  00000+0  00000+0 0  9994
2 41945   0.0210  60.9566 0000518 327.6657 316.6444  1.00271064 34523
ECHOSTAR 23             
1 42070U 17014A   26198.17484009 -.00000067  00000+0  00000+0 0  9997
2 42070   0.0193  45.0049 0002201  68.8443 134.1837  1.00271339 34222
WGS F9 (USA 275)        
1 42075U 17016A   26198.26557483  .00000000  00000+0  00000+0 0  9997
2 42075   0.0212  53.2547 0000227 195.2846 130.1930  1.00269712 34199
SES-10                  
1 42432U 17017A   26197.82695617 -.00000283  00000+0  00000+0 0  9992
2 42432   0.0185  50.0191 0002568  69.1111  46.3217  1.00272600 34050
CHINASAT 16 (SJ-13)     
1 42662U 17018A   26197.07791604 -.00000362  00000+0  00000+0 0  9996
2 42662   0.0882  88.3030 0005044 136.5277 207.6336  1.00266869 34031
KOREASAT 7              
1 42691U 17023A   26197.87378125 -.00000372  00000+0  00000+0 0  9992
2 42691   0.0220 344.4639 0000682 106.6310 274.0441  1.00269993 33663
SGDC                    
1 42692U 17023B   26197.39066478 -.00000260  00000+0  00000+0 0  9991
2 42692   0.0195 317.7600 0002306 164.2418 238.0000  1.00270161 33705
GSAT-9                  
1 42695U 17024A   26198.07333524 -.00000299  00000+0  00000+0 0  9992
2 42695   0.0905  91.2899 0003591  55.4612 271.7945  1.00289182 33597
INMARSAT 5-F4           
1 42698U 17025A   26197.85143833  .00000065  00000+0  00000+0 0  9993
2 42698   0.0188  46.2027 0000455 146.1097 105.3817  1.00271611 33573
SES-15                  
1 42709U 17026A   26197.95712512  .00000050  00000+0  00000+0 0  9998
2 42709   0.0264 329.9562 0000356 132.1593  48.0647  1.00268733  7736
QZS-2 (MICHIBIKI-2)     
1 42738U 17028A   26197.47358897 -.00000143  00000+0  00000+0 0  9995
2 42738  39.3848 242.7220 0757359 269.6144  94.9037  1.00276421  7921
VIASAT-2                
1 42740U 17029A   26198.11147287 -.00000275  00000+0  00000+0 0  9996
2 42740   0.0158 323.0627 0000531 225.7151  76.3847  1.00270121 33508
EUTELSAT 172B           
1 42741U 17029B   26198.23065369 -.00000016  00000+0  00000+0 0  9993
2 42741   0.0263 122.8121 0000075 167.1304 260.1257  1.00270427 34049
GSAT-19                 
1 42747U 17031A   26198.20612692  .00000115  00000+0  00000+0 0  9995
2 42747   0.0439  89.0354 0006234   2.1319 325.9251  1.00270096 33448
ECHOSTAR 21             
1 42749U 17032A   26198.26990817  .00000056  00000+0  00000+0 0  9996
2 42749   1.7705 357.6674 0002222 107.1348 297.7044  1.00270202 33405
BULGARIASAT-1           
1 42801U 17038A   26198.26826150  .00000000  00000+0  00000+0 0  9998
2 42801   0.0402  75.5527 0003188  55.3179 262.6639  1.00272194 33145
HELLAS-SAT 3            
1 42814U 17040A   26198.27562821  .00000142  00000+0  00000+0 0  9995
2 42814   0.0546  52.9351 0003231  24.8483 355.5236  1.00272529 33103
GSAT-17                 
1 42815U 17040B   26198.07255523 -.00000268  00000+0  00000+0 0  9992
2 42815   0.0133  75.6330 0002204 190.9159 147.9460  1.00272035 33080
INTELSAT 35E (IS-35E)   
1 42818U 17041A   26198.24419874 -.00000248  00000+0  00000+0 0  9994
2 42818   0.0191  50.0878 0001878  68.2072 230.1718  1.00272874 33114
COSMOS 2520             
1 42907U 17046A   26198.27684154  .00000126  00000+0  00000+0 0  9990
2 42907   0.0313 107.3941 0000841 340.7608 351.5939  1.00278853 32696
TDRS 13                 
1 42915U 17047A   26198.26566149 -.00000110  00000+0  00000+0 0  9996
2 42915   3.4601   3.4737 0014826 111.3943 264.4511  1.00271865 32653
