OBJECT_NAME,OBJECT_ID,EPOCH,MEAN_MOTION,ECCENTRICITY,INCLINATION,RA_OF_ASC_NODE,ARG_OF_PERICENTER,MEAN_ANOMALY,EPHEMERIS_TYPE,CLASSIFICATION_TYPE,NORAD_CAT_ID,ELEMENT_SET_NO,REV_AT_EPOCH,BSTAR,MEAN_MOTION_DOT,MEAN_MOTION_DDOT
GOES 16,2016-071A,2026-07-17T05:55:58.200960,1.00271190,.00005686,0.4093,85.4586,87.3993,106.5031,0,U,41866,999,3540,0,-.101E-5,0
TIANLIAN 1-04,2016-072A,2026-07-17T06:08:38.712768,1.00271492,.00441804,0.9433,82.7079,90.7239,30.5732,0,U,41869,999,3560,0,.2E-6,0
WGS F8 (USA 272),2016-075A,2026-07-16T19:09:56.651904,1.00269897,.00001426,0.0189,48.5677,297.7813,25.5764,0,U,41879,999,3511,0,-.213E-5,0
FENGYUN 4A,2016-077A,2026-07-17T07:00:59.466816,1.00267042,.00084609,2.3972,79.9372,159.7505,284.3877,0,U,41882,999,3523,0,-.368E-5,0
ECHOSTAR 19,2016-079A,2026-07-17T05:58:05.496672,1.00270346,.00014714,0.0182,54.7166,71.9942,160.7766,0,U,41893,999,3500,0,-.148E-5,0
JCSAT-110A (JCSAT-15),2016-082A,2026-07-17T06:57:07.339392,1.00270386,.00005099,0.0189,49.1602,80.5438,19.7468,0,U,41903,999,3506,0,-.361E-5,0
STAR ONE D1,2016-082B,2026-07-17T06:01:42.650112,1.00270682,.00022593,0.0086,319.6845,157.2301,184.5909,0,U,41904,999,3507,0,-.221E-5,0
TJS-2,2017-001A,2026-07-17T04:39:38.704608,1.00271125,.00007995,0.9089,84.9217,102.9251,243.6065,0,U,41911,999,3501,0,-.17E-6,0
SBIRS GEO-4 (USA 273),2017-004A,2026-07-17T06:32:02.243616,1.00281198,.00026667,2.3004,44.0420,66.8136,303.9667,0,U,41937,999,3490,0,.117E-5,0
HISPASAT 36W-1,2017-006A,2026-07-16T09:43:44.170176,1.00268264,.0001197,0.0104,68.2055,46.6774,289.3003,0,U,41942,999,3453,0,0,0
TELKOM 3S,2017-007A,2026-07-17T05:16:39.963936,1.00266338,.0002145,0.0133,61.2731,51.8173,19.1161,0,U,41944,999,3444,0,0,0
INTELSAT 32E (IS-32E),2017-007B,2026-07-17T06:13:26.525856,1.00271064,.0000518,0.0210,60.9566,327.6657,316.6444,0,U,41945,999,3452,0,0,0
ECHOSTAR 23,2017-014A,2026-07-17T04:11:46.183776,1.00271339,.00022011,0.0193,45.0049,68.8443,134.1837,0,U,42070,999,3422,0,-.67E-6,0
WGS F9 (USA 275),2017-016A,2026-07-17T06:22:25.665312,1.00269712,.00002273,0.0212,53.2547,195.2846,130.1930,0,U,42075,999,3419,0,0,0
SES-10,2017-017A,2026-07-16T19:50:49.013088,1.00272600,.00025688,0.0185,50.0191,69.1111,46.3217,0,U,42432,999,3405,0,-.283E-5,0
CHINASAT 16 (SJ-13),2017-018A,2026-07-16T01:52:11.945856,1.00266869,.00050444,0.0882,88.3030,136.5277,207.6336,0,U,42662,999,3403,0,-.362E-5,0
KOREASAT 7,2017-023A,2026-07-16T20:58:14.700000,1.00269993,.00006826,0.0220,344.4639,106.6310,274.0441,0,U,42691,999,3366,0,-.372E-5,0
SGDC,2017-023B,2026-07-16T09:22:33.436992,1.00270161,.00023068,0.0195,317.7600,164.2418,238.0000,0,U,42692,999,3370,0,-.26E-5,0
GSAT-9,2017-024A,2026-07-17T01:45:36.164736,1.00289182,.00035912,0.0905,91.2899,55.4612,271.7945,0,U,42695,999,3359,0,-.299E-5,0
INMARSAT 5-F4,2017-025A,2026-07-16T20:26:04.271712,1.00271611,.00004556,0.0188,46.2027,146.1097,105.3817,0,U,42698,999,3357,0,.65E-6,0
SES-15,2017-026A,2026-07-16T22:58:15.610368,1.00268733,.00003564,0.0264,329.9562,132.1593,48.0647,0,U,42709,999,773,0,.5E-6,0
QZS-2 (MICHIBIKI-2),2017-028A,2026-07-16T11:21:58.087008,1.00276421,.07573594,39.3848,242.7220,269.6144,94.9037,0,U,42738,999,792,0,-.143E-5,0
VIASAT-2,2017-029A,2026-07-17T02:40:31.255968,1.00270121,.00005313,0.0158,323.0627,225.7151,76.3847,0,U,42740,999,3350,0,-.275E-5,0
EUTELSAT 172B,2017-029B,2026-07-17T05:32:08.478816,1.00270427,.00000755,0.0263,122.8121,167.1304,260.1257,0,U,42741,999,3404,0,-.16E-6,0
GSAT-19,2017-031A,2026-07-17T04:56:49.365888,1.00270096,.00062348,0.0439,89.0354,2.1319,325.9251,0,U,42747,999,3344,0,.115E-5,0
ECHOSTAR 21,2017-032A,2026-07-17T06:28:40.065888,1.00270202,.00022222,1.7705,357.6674,107.1348,297.7044,0,U,42749,999,3340,0,.56E-6,0
BULGARIASAT-1,2017-038A,2026-07-17T06:26:17.793600,1.00272194,.00031883,0.0402,75.5527,55.3179,262.6639,0,U,42801,999,3314,0,0,0
HELLAS-SAT 3,2017-040A,2026-07-17T06:36:54.277344,1.00272529,.00032316,0.0546,52.9351,24.8483,355.5236,0,U,42814,999,3310,0,.142E-5,0
GSAT-17,2017-040B,2026-07-17T01:44:28.771872,1.00272035,.00022041,0.0133,75.6330,190.9159,147.9460,0,U,42815,999,3308,0,-.268E-5,0
INTELSAT 35E (IS-35E),2017-041A,2026-07-17T05:51:38.771136,1.00272874,.00018784,0.0191,50.0878,68.2072,230.1718,0,U,42818,999,3311,0,-.248E-5,0
COSMOS 2520,2017-046A,2026-07-17T06:38:39.109056,1.00278853,.00008412,0.0313,107.3941,340.7608,351.5939,0,U,42907,999,3269,0,.126E-5,0
TDRS 13,2017-047A,2026-07-17T06:22:33.152736,1.00271865,.00148266,3.4601,3.4737,111.3943,264.4511,0,U,42915,999,3265,0,-.11E-5,0
